H1 CPF 01  gfz 2021 03 25 01  5841 terrasarx 
H2 0702601  6201 31698    2021 03 25 00 59 42 2021 03 30 00 00 42   120 1 1  0 0 0
H9
10 0 59300  79182.000000  0    2388096.934  -5095059.661   3965254.378
10 0 59300  79302.000000  0    1975467.877  -4659120.929   4664568.474
10 0 59300  79422.000000  0    1536730.130  -4134323.574   5281799.702
10 0 59300  79542.000000  0    1081038.424  -3529487.704   5806121.211
10 0 59300  79662.000000  0     617669.766  -2854985.708   6228350.100
10 0 59300  79782.000000  0     155834.497  -2122557.370   6541101.284
10 0 59300  79902.000000  0    -295505.643  -1345101.291   6738909.586
10 0 59300  80022.000000  0    -727809.963   -536446.117   6818320.514
10 0 59300  80142.000000  0   -1133119.238    288896.844   6777947.392
10 0 59300  80262.000000  0   -1504201.672   1115993.906   6618493.743
10 0 59300  80382.000000  0   -1834681.533   1929758.339   6342741.556
10 0 59300  80502.000000  0   -2119149.264   2715224.805   5955505.968
10 0 59300  80622.000000  0   -2353250.761   3457825.226   5463556.076
10 0 59300  80742.000000  0   -2533754.853   4143661.163   4875503.330
10 0 59300  80862.000000  0   -2658598.559   4759769.303   4201657.320
10 0 59300  80982.000000  0   -2726907.814   5294373.754   3453849.441
10 0 59300  81102.000000  0   -2738993.193   5737119.423   2645226.627
10 0 59300  81222.000000  0   -2696320.556   6079280.335   1790019.255
10 0 59300  81342.000000  0   -2601457.516   6313938.750    903287.259
10 0 59300  81462.000000  0   -2457996.137   6436130.267       648.986
10 0 59300  81582.000000  0   -2270454.424   6442951.045   -902001.896
10 0 59300  81702.000000  0   -2044159.060   6333624.367  -1788786.639
10 0 59300  81822.000000  0   -1785110.418   6109520.574  -2644132.117
10 0 59300  81942.000000  0   -1499834.950   5774132.152  -3453048.842
10 0 59300  82062.000000  0   -1195230.759   5333010.199  -4201394.960
10 0 59300  82182.000000  0    -878409.087   4793660.686  -4876122.333
10 0 59300  82302.000000  0    -556535.501   4165405.538  -5465498.480
10 0 59300  82422.000000  0    -236674.006   3459211.941  -5959303.529
10 0 59300  82542.000000  0      74362.694   2687492.052  -6348998.051
10 0 59300  82662.000000  0     370152.713   1863879.181  -6627858.565
10 0 59300  82782.000000  0     644792.232   1002986.753  -6791082.910
10 0 59300  82902.000000  0     893009.122    120151.158  -6835864.633
10 0 59300  83022.000000  0    1110260.739   -768836.848  -6761435.760
10 0 59300  83142.000000  0    1292814.400  -1648008.377  -6569076.989
10 0 59300  83262.000000  0    1437809.959  -2501494.989  -6262097.513
10 0 59300  83382.000000  0    1543304.687  -3313808.386  -5845785.787
10 0 59300  83502.000000  0    1608298.327  -4070119.794  -5327329.149
10 0 59300  83622.000000  0    1632738.181  -4756531.802  -4715699.265
10 0 59300  83742.000000  0    1617504.930  -5360336.170  -4021507.792
10 0 59300  83862.000000  0    1564378.061  -5870257.114  -3256833.202
10 0 59300  83982.000000  0    1475980.874  -6276672.294  -2435017.727
10 0 59300  84102.000000  0    1355707.642  -6571805.876  -1570438.362
10 0 59300  84222.000000  0    1207633.496  -6749888.999   -678255.481
10 0 59300  84342.000000  0    1036407.712  -6807283.101    225856.820
10 0 59300  84462.000000  0     847135.316  -6742560.985   1125992.505
10 0 59300  84582.000000  0     645247.948  -6556544.761   2006301.661
10 0 59300  84702.000000  0     436368.750  -6252298.078   2851279.814
10 0 59300  84822.000000  0     226173.307  -5835071.025   3646050.041
10 0 59300  84942.000000  0      20250.395  -5312201.612   4376629.723
10 0 59300  85062.000000  0    -176032.763  -4692978.326   5030179.330
10 0 59300  85182.000000  0    -357657.951  -3988464.866   5595228.302
10 0 59300  85302.000000  0    -520072.765  -3211292.801   6061874.423
10 0 59300  85422.000000  0    -659294.932  -2375425.145   6421952.256
10 0 59300  85542.000000  0    -772001.859  -1495899.964   6669167.901
10 0 59300  85662.000000  0    -855603.827   -588557.985   6799203.444
10 0 59300  85782.000000  0    -908300.115    330244.060   6809788.892
10 0 59300  85902.000000  0    -929116.389   1243928.452   6700739.301
10 0 59300  86022.000000  0    -917922.171   2135995.039   6473957.635
10 0 59300  86142.000000  0    -875429.037   2990318.630   6133403.604
10 0 59300  86262.000000  0    -803169.902   3791441.222   5685029.082
10 0 59300  86382.000000  0    -703459.134   4524854.502   5136679.278
10 0 59301    102.000000  0    -579334.374   5177267.544   4497962.180
10 0 59301    222.000000  0    -434481.177   5736856.453   3780084.735
10 0 59301    342.000000  0    -273141.208   6193485.591   2995659.771
10 0 59301    462.000000  0    -100008.288   6538904.338   2158487.670
10 0 59301    582.000000  0      79889.054   6766907.056   1283307.533
10 0 59301    702.000000  0     261314.460   6873450.518    385532.240
10 0 59301    822.000000  0     438955.899   6856730.465   -519030.164
10 0 59301    942.000000  0     607560.579   6717212.612  -1414464.325
10 0 59301   1062.000000  0     762067.039   6457616.674  -2285036.151
10 0 59301   1182.000000  0     897732.278   6082856.420  -3115475.650
10 0 59301   1302.000000  0    1010251.795   5599937.057  -3891248.828
10 0 59301   1422.000000  0    1095869.077   5017812.625  -4598813.191
10 0 59301   1542.000000  0    1151471.960   4347207.387  -5225851.331
10 0 59301   1662.000000  0    1174673.693   3600406.937  -5761478.340
10 0 59301   1782.000000  0    1163876.761   2791024.659  -6196421.860
10 0 59301   1902.000000  0    1118318.810   1933747.250  -6523171.353
10 0 59301   2022.000000  0    1038099.955   1044067.327  -6736095.729
10 0 59301   2142.000000  0     924191.253    138005.916  -6831531.493
10 0 59301   2262.000000  0     778424.514   -768171.633  -6807838.786
10 0 59301   2382.000000  0     603462.878  -1658241.345  -6665425.068
10 0 59301   2502.000000  0     402753.724  -2516302.424  -6406737.961
10 0 59301   2622.000000  0     180463.903  -3327054.721  -6036230.146
10 0 59301   2742.000000  0     -58602.817  -4076069.608  -5560290.833
10 0 59301   2862.000000  0    -309102.983  -4750046.189  -4987145.519
10 0 59301   2982.000000  0    -565265.340  -5337051.396  -4326725.672
10 0 59301   3102.000000  0    -821015.674  -5826739.204  -3590507.414
10 0 59301   3222.000000  0   -1070111.769  -6210543.464  -2791320.486
10 0 59301   3342.000000  0   -1306285.731  -6481839.816  -1943130.576
10 0 59301   3462.000000  0   -1523390.683  -6636073.355  -1060797.078
10 0 59301   3582.000000  0   -1715547.790  -6670846.533   -159810.075
10 0 59301   3702.000000  0   -1877290.259  -6585964.441    743987.304
10 0 59301   3822.000000  0   -2003700.832  -6383436.042   1634685.294
10 0 59301   3942.000000  0   -2090538.739  -6067430.797   2496596.710
10 0 59301   4062.000000  0   -2134352.446  -5644191.209   3314542.321
10 0 59301   4182.000000  0   -2132575.119  -5121903.765   4074125.164
10 0 59301   4302.000000  0   -2083600.740  -4510532.740   4761987.966
10 0 59301   4422.000000  0   -1986839.779  -3821621.910   5366049.330
10 0 59301   4542.000000  0   -1842753.179  -3068067.145   5875715.597
10 0 59301   4662.000000  0   -1652862.459  -2263866.089   6282062.004
10 0 59301   4782.000000  0   -1419736.968  -1423853.127   6577982.668
10 0 59301   4902.000000  0   -1146959.809   -563422.263   6758309.355
10 0 59301   5022.000000  0    -839073.149    301757.043   6819895.199
10 0 59301   5142.000000  0    -501502.869   1156024.110   6761666.221
10 0 59301   5262.000000  0    -140462.792   1984010.133   6584639.455
10 0 59301   5382.000000  0     237159.552   2770914.444   6291906.135
10 0 59301   5502.000000  0     623933.320   3502768.999   5888580.845
10 0 59301   5622.000000  0    1012028.682   4166688.688   5381717.726
10 0 59301   5742.000000  0    1393373.367   4751102.606   4780193.019
10 0 59301   5862.000000  0    1759818.601   5245962.603   4094554.997
10 0 59301   5982.000000  0    2103311.175   5642923.054   3336844.008
10 0 59301   6102.000000  0    2416069.121   5935491.845   2520384.366
10 0 59301   6222.000000  0    2690754.275   6119146.115   1659546.945
10 0 59301   6342.000000  0    2920640.086   6191407.274    769490.690
10 0 59301   6462.000000  0    3099767.275   6151874.487   -134111.484
10 0 59301   6582.000000  0    3223086.022   6002217.172  -1035356.423
10 0 59301   6702.000000  0    3286580.532   5746125.342  -1918398.944
10 0 59301   6822.000000  0    3287372.450   5389220.350  -2767737.711
10 0 59301   6942.000000  0    3223800.879   4938927.262  -3568493.622
10 0 59301   7062.000000  0    3095475.966   4404312.152  -4306673.031
10 0 59301   7182.000000  0    2903306.279   3795891.273  -4969410.394
10 0 59301   7302.000000  0    2649499.461   3125416.359  -5545187.533
10 0 59301   7422.000000  0    2337537.804   2405641.014  -6024025.649
10 0 59301   7542.000000  0    1972128.182   1650073.724  -6397647.834
10 0 59301   7662.000000  0    1559128.817    872723.249  -6659609.931
10 0 59301   7782.000000  0    1105455.297     87841.486  -6805401.040
10 0 59301   7902.000000  0     618964.748   -690333.404  -6832514.009
10 0 59301   8022.000000  0     108321.147  -1447830.017  -6740482.433
10 0 59301   8142.000000  0    -417154.747  -2171187.166  -6530886.829
10 0 59301   8262.000000  0    -947650.920  -2847687.286  -6207332.154
10 0 59301   8382.000000  0   -1473043.004  -3465577.689  -5775392.331
10 0 59301   8502.000000  0   -1983082.586  -4014273.584  -5242523.712
10 0 59301   8622.000000  0   -2467593.813  -4484542.587  -4617948.816
10 0 59301   8742.000000  0   -2916675.439  -4868666.843  -3912507.812
10 0 59301   8862.000000  0   -3320902.926  -5160577.343  -3138479.336
10 0 59301   8982.000000  0   -3671526.670  -5355958.640  -2309374.003
10 0 59301   9102.000000  0   -3960662.632  -5452321.051  -1439702.243
10 0 59301   9222.000000  0   -4181469.911  -5449037.579   -544719.760
99
